start=new Date('2022-05-21T00:00:00.000Z').valueOf();
sats=[{"DECAY_DATE":null,"PERIOD":"95.437","SITE":"AFETR","ELEMENT_SET_NO":"999","FILE":"3455633","REF_FRAME":"TEME","INCLINATION":"53.2171","CENTER_NAME":"EARTH","ARG_OF_PERICENTER":"30.2427","EPOCH":"2022-05-20T22:00:00.999936","MEAN_MOTION":"15.08843296","BSTAR":"0.00146080000000","PERIAPSIS":"538.165","MEAN_MOTION_DOT":"0.00023040","MEAN_ANOMALY":"12.8520","ECCENTRICITY":"0.00022700","TIME_SYSTEM":"UTC","MEAN_MOTION_DDOT":"0.0000000000000","RCS_SIZE":"LARGE","CLASSIFICATION_TYPE":"U","LAUNCH_DATE":"2022-01-06","RA_OF_ASC_NODE":"293.5703","EPHEMERIS_TYPE":"0","MEAN_ELEMENT_THEORY":"SGP4","APOAPSIS":"541.306","REV_AT_EPOCH":"2180","SEMIMAJOR_AXIS":"6917.870","COUNTRY_CODE":"US","OBJECT_TYPE":"PAYLOAD","OBJECT_ID":"2022-001AS","GP_ID":"204052844","NORAD_CAT_ID":"50843","TLE_LINE2":"2 50843  53.2171 293.5703 0002270  30.2427  12.8520 15.08843296 21804","TLE_LINE1":"1 50843U 22001AS  22140.91667824  .00023040  00000-0  14608-2 0  9997","OBJECT_NAME":"STARLINK-3325"},{"MEAN_MOTION":"15.08857797","EPOCH":"2022-05-20T14:00:01.000224","MEAN_ANOMALY":"172.1590","MEAN_MOTION_DOT":"-0.00028120","PERIAPSIS":"538.312","BSTAR":"-0.00175470000000","SITE":"AFETR","PERIOD":"95.436","DECAY_DATE":null,"CENTER_NAME":"EARTH","ARG_OF_PERICENTER":"39.3161","REF_FRAME":"TEME","INCLINATION":"53.2183","FILE":"3454894","ELEMENT_SET_NO":"999","NORAD_CAT_ID":"50844","GP_ID":"204015731","OBJECT_ID":"2022-001AT","COUNTRY_CODE":"US","OBJECT_TYPE":"PAYLOAD","REV_AT_EPOCH":"2183","SEMIMAJOR_AXIS":"6917.826","APOAPSIS":"541.070","MEAN_ELEMENT_THEORY":"SGP4","OBJECT_NAME":"STARLINK-3326","TLE_LINE1":"1 50844U 22001AT  22140.58334491 -.00028120  00000-0 -17547-2 0  9993","TLE_LINE2":"2 50844  53.2183 295.0564 0001994  39.3161 172.1590 15.08857797 21838","MEAN_MOTION_DDOT":"0.0000000000000","TIME_SYSTEM":"UTC","ECCENTRICITY":"0.00019940","EPHEMERIS_TYPE":"0","RA_OF_ASC_NODE":"295.0564","LAUNCH_DATE":"2022-01-06","CLASSIFICATION_TYPE":"U","RCS_SIZE":"LARGE"},{"OBJECT_NAME":"STARLINK-3230","TLE_LINE1":"1 50845U 22001AU  22140.91667824  .00006945  00000-0  45415-3 0  9995","TLE_LINE2":"2 50845  53.2179 293.5552 0001555  53.0682 290.0475 15.08828357 21841","GP_ID":"204052037","OBJECT_ID":"2022-001AU","NORAD_CAT_ID":"50845","COUNTRY_CODE":"US","OBJECT_TYPE":"PAYLOAD","SEMIMAJOR_AXIS":"6917.916","REV_AT_EPOCH":"2184","APOAPSIS":"540.857","MEAN_ELEMENT_THEORY":"SGP4","EPHEMERIS_TYPE":"0","RA_OF_ASC_NODE":"293.5552","LAUNCH_DATE":"2022-01-06","CLASSIFICATION_TYPE":"U","RCS_SIZE":"LARGE","TIME_SYSTEM":"UTC","MEAN_MOTION_DDOT":"0.0000000000000","ECCENTRICITY":"0.00015550","MEAN_ANOMALY":"290.0475","MEAN_MOTION_DOT":"0.00006945","PERIAPSIS":"538.705","BSTAR":"0.00045415000000","MEAN_MOTION":"15.08828357","EPOCH":"2022-05-20T22:00:00.999936","ARG_OF_PERICENTER":"53.0682","CENTER_NAME":"EARTH","INCLINATION":"53.2179","REF_FRAME":"TEME","FILE":"3455610","ELEMENT_SET_NO":"999","SITE":"AFETR","PERIOD":"95.438","DECAY_DATE":null},{"RCS_SIZE":"LARGE","RA_OF_ASC_NODE":"295.0545","CLASSIFICATION_TYPE":"U","LAUNCH_DATE":"2022-01-06","EPHEMERIS_TYPE":"0","ECCENTRICITY":"0.00020120","TIME_SYSTEM":"UTC","MEAN_MOTION_DDOT":"0.0000000000000","TLE_LINE1":"1 50846U 22001AV  22140.58334491 -.00057997  00000-0 -36518-2 0  9998","TLE_LINE2":"2 50846  53.2181 295.0545 0002012  33.2943 198.2020 15.08875827 21842","OBJECT_NAME":"STARLINK-3308","APOAPSIS":"541.028","MEAN_ELEMENT_THEORY":"SGP4","REV_AT_EPOCH":"2184","SEMIMAJOR_AXIS":"6917.771","NORAD_CAT_ID":"50846","GP_ID":"204016041","OBJECT_ID":"2022-001AV","COUNTRY_CODE":"US","OBJECT_TYPE":"PAYLOAD","ELEMENT_SET_NO":"999","INCLINATION":"53.2181","REF_FRAME":"TEME","FILE":"3454895","ARG_OF_PERICENTER":"33.2943","CENTER_NAME":"EARTH","DECAY_DATE":null,"SITE":"AFETR","PERIOD":"95.435","BSTAR":"-0.00365180000000","MEAN_MOTION_DOT":"-0.00057997","PERIAPSIS":"538.244","MEAN_ANOMALY":"198.2020","EPOCH":"2022-05-20T14:00:01.000224","MEAN_MOTION":"15.08875827"},{"OBJECT_NAME":"STARLINK-3319","TLE_LINE2":"2 50847  53.2146 295.0524 0001832  86.7240   4.8664 15.08843279 21755","TLE_LINE1":"1 50847U 22001AW  22140.58334491 -.00028766  00000-0 -17963-2 0  9994","COUNTRY_CODE":"US","OBJECT_TYPE":"PAYLOAD","GP_ID":"204016044","NORAD_CAT_ID":"50847","OBJECT_ID":"2022-001AW","SEMIMAJOR_AXIS":"6917.870","REV_AT_EPOCH":"2175","MEAN_ELEMENT_THEORY":"SGP4","APOAPSIS":"541.003","EPHEMERIS_TYPE":"0","CLASSIFICATION_TYPE":"U","LAUNCH_DATE":"2022-01-06","RA_OF_ASC_NODE":"295.0524","RCS_SIZE":"LARGE","MEAN_MOTION_DDOT":"0.0000000000000","TIME_SYSTEM":"UTC","ECCENTRICITY":"0.00018320","MEAN_ANOMALY":"4.8664","PERIAPSIS":"538.468","MEAN_MOTION_DOT":"-0.00028766","BSTAR":"-0.00179630000000","MEAN_MOTION":"15.08843279","EPOCH":"2022-05-20T14:00:01.000224","ARG_OF_PERICENTER":"86.7240","CENTER_NAME":"EARTH","FILE":"3454895","REF_FRAME":"TEME","INCLINATION":"53.2146","ELEMENT_SET_NO":"999","PERIOD":"95.437","SITE":"AFETR","DECAY_DATE":null},{"RCS_SIZE":"LARGE","EPHEMERIS_TYPE":"0","RA_OF_ASC_NODE":"295.0528","LAUNCH_DATE":"2022-01-06","CLASSIFICATION_TYPE":"U","ECCENTRICITY":"0.00016720","MEAN_MOTION_DDOT":"0.0000000000000","TIME_SYSTEM":"UTC","TLE_LINE1":"1 50848U 22001AX  22140.58334491 -.00052414  00000-0 -32970-2 0  9997","TLE_LINE2":"2 50848  53.2180 295.0528 0001672  43.0329 208.4477 15.08864591 21871","OBJECT_NAME":"STARLINK-3315","APOAPSIS":"540.827","MEAN_ELEMENT_THEORY":"SGP4","GP_ID":"204015758","OBJECT_ID":"2022-001AX","NORAD_CAT_ID":"50848","OBJECT_TYPE":"PAYLOAD","COUNTRY_CODE":"US","SEMIMAJOR_AXIS":"6917.805","REV_AT_EPOCH":"2187","ELEMENT_SET_NO":"999","CENTER_NAME":"EARTH","ARG_OF_PERICENTER":"43.0329","INCLINATION":"53.2180","REF_FRAME":"TEME","FILE":"3454896","SITE":"AFETR","PERIOD":"95.436","DECAY_DATE":null,"BSTAR":"-0.00329700000000","MEAN_ANOMALY":"208.4477","MEAN_MOTION_DOT":"-0.00052414","PERIAPSIS":"538.514","EPOCH":"2022-05-20T14:00:01.000224","MEAN_MOTION":"15.08864591"},{"PERIAPSIS":"538.166","MEAN_MOTION_DOT":"-0.00042136","MEAN_ANOMALY":"153.7033","BSTAR":"-0.00264320000000","MEAN_MOTION":"15.08861865","EPOCH":"2022-05-20T14:00:01.000224","FILE":"3454896","INCLINATION":"53.2180","REF_FRAME":"TEME","ARG_OF_PERICENTER":"37.7676","CENTER_NAME":"EARTH","ELEMENT_SET_NO":"999","DECAY_DATE":null,"PERIOD":"95.436","SITE":"AFETR","OBJECT_NAME":"STARLINK-3311","TLE_LINE2":"2 50849  53.2180 295.0557 0002186  37.7676 153.7033 15.08861865 21758","TLE_LINE1":"1 50849U 22001AY  22140.58334491 -.00042136  00000-0 -26432-2 0  9994","SEMIMAJOR_AXIS":"6917.814","REV_AT_EPOCH":"2175","OBJECT_TYPE":"PAYLOAD","COUNTRY_CODE":"US","NORAD_CAT_ID":"50849","GP_ID":"204016055","OBJECT_ID":"2022-001AY","MEAN_ELEMENT_THEORY":"SGP4","APOAPSIS":"541.191","LAUNCH_DATE":"2022-01-06","CLASSIFICATION_TYPE":"U","RA_OF_ASC_NODE":"295.0557","EPHEMERIS_TYPE":"0","RCS_SIZE":"LARGE","MEAN_MOTION_DDOT":"0.0000000000000","TIME_SYSTEM":"UTC","ECCENTRICITY":"0.00021860"},{"PERIOD":"92.965","SITE":"AFETR","DECAY_DATE":null,"ELEMENT_SET_NO":"999","CENTER_NAME":"EARTH","ARG_OF_PERICENTER":"26.9977","FILE":"3455160","REF_FRAME":"TEME","INCLINATION":"53.2175","EPOCH":"2022-05-20T14:00:01.000224","MEAN_MOTION":"15.48975350","BSTAR":"-0.01420300000000","MEAN_ANOMALY":"46.9375","PERIAPSIS":"418.357","MEAN_MOTION_DOT":"-0.00722784","ECCENTRICITY":"0.00020120","MEAN_MOTION_DDOT":"0.0000000000000","TIME_SYSTEM":"UTC","RCS_SIZE":"LARGE","EPHEMERIS_TYPE":"0","CLASSIFICATION_TYPE":"U","LAUNCH_DATE":"2022-01-06","RA_OF_ASC_NODE":"258.7942","MEAN_ELEMENT_THEORY":"SGP4","APOAPSIS":"421.092","OBJECT_TYPE":"PAYLOAD","COUNTRY_CODE":"US","NORAD_CAT_ID":"50850","GP_ID":"204043297","OBJECT_ID":"2022-001AZ","SEMIMAJOR_AXIS":"6797.859","REV_AT_EPOCH":"130","TLE_LINE2":"2 50850  53.2175 258.7942 0002012  26.9977  46.9375 15.48975350  1300","TLE_LINE1":"1 50850U 22001AZ  22140.58334491 -.00722784  00000-0 -14203-1 0  9992","OBJECT_NAME":"STARLINK-3312"},{"EPOCH":"2022-05-20T22:00:00.999936","MEAN_MOTION":"15.08835032","BSTAR":"0.00034144000000","MEAN_ANOMALY":"253.6352","PERIAPSIS":"538.192","MEAN_MOTION_DOT":"0.00005149","PERIOD":"95.438","SITE":"AFETR","DECAY_DATE":null,"ELEMENT_SET_NO":"999","ARG_OF_PERICENTER":"29.4590","CENTER_NAME":"EARTH","FILE":"3455637","INCLINATION":"53.2181","REF_FRAME":"TEME","MEAN_ELEMENT_THEORY":"SGP4","APOAPSIS":"541.329","OBJECT_TYPE":"PAYLOAD","COUNTRY_CODE":"US","OBJECT_ID":"2022-001BA","GP_ID":"204052465","NORAD_CAT_ID":"50851","SEMIMAJOR_AXIS":"6917.896","REV_AT_EPOCH":"2189","TLE_LINE2":"2 50851  53.2181 293.5581 0002267  29.4590 253.6352 15.08835032 21891","TLE_LINE1":"1 50851U 22001BA  22140.91667824  .00005149  00000-0  34144-3 0  9994","OBJECT_NAME":"STARLINK-3314","ECCENTRICITY":"0.00022670","MEAN_MOTION_DDOT":"0.0000000000000","TIME_SYSTEM":"UTC","RCS_SIZE":"LARGE","EPHEMERIS_TYPE":"0","CLASSIFICATION_TYPE":"U","LAUNCH_DATE":"2022-01-06","RA_OF_ASC_NODE":"293.5581"},{"BSTAR":"0.00056555000000","MEAN_MOTION_DOT":"0.00008723","PERIAPSIS":"538.659","MEAN_ANOMALY":"110.9649","EPOCH":"2022-05-20T14:00:01.000224","MEAN_MOTION":"15.08836463","ELEMENT_SET_NO":"999","REF_FRAME":"TEME","INCLINATION":"53.2125","FILE":"3454535","ARG_OF_PERICENTER":"55.5072","CENTER_NAME":"EARTH","DECAY_DATE":null,"SITE":"AFETR","PERIOD":"95.438","TLE_LINE1":"1 51104U 22005A   22140.58334491  .00008723  00000-0  56555-3 0  9995","TLE_LINE2":"2 51104  53.2125  45.0616 0001586  55.5072 110.9649 15.08836463 20283","OBJECT_NAME":"STARLINK-3366","APOAPSIS":"540.853","MEAN_ELEMENT_THEORY":"SGP4","SEMIMAJOR_AXIS":"6917.891","REV_AT_EPOCH":"2028","GP_ID":"204006805","OBJECT_ID":"2022-005A","NORAD_CAT_ID":"51104","OBJECT_TYPE":"PAYLOAD","COUNTRY_CODE":"US","RCS_SIZE":"LARGE","RA_OF_ASC_NODE":"45.0616","CLASSIFICATION_TYPE":"U","LAUNCH_DATE":"2022-01-19","EPHEMERIS_TYPE":"0","ECCENTRICITY":"0.00015860","TIME_SYSTEM":"UTC","MEAN_MOTION_DDOT":"0.0000000000000"}];
